{
  "type": "FeatureCollection",
  "features": [
    {
      "type": "Feature",
      "properties": {
        "norad_id": 38062,
        "name": "COSMOS 2251 DEB",
        "group": "cosmos-2251-debris",
        "lat": -52.30666272745622,
        "lon": -121.42532813753576,
        "alt_km": 586.341383042216,
        "timestamp": "2025-12-27T15:27:11.592545+00:00",
        "meta_object_name": "COSMOS 2251 DEB",
        "meta_object_id": "1993-036BRU",
        "meta_epoch": "2025-12-20T12:40:12.328608",
        "meta_mean_motion": 14.95206267,
        "meta_eccentricity": 0.00129431,
        "meta_inclination": 74.0088,
        "meta_ra_of_asc_node": 274.7346,
        "meta_arg_of_pericenter": 42.7602,
        "meta_mean_anomaly": 131.9089,
        "meta_ephemeris_type": 0,
        "meta_classification_type": "U",
        "meta_norad_cat_id": 38062,
        "meta_element_set_no": 999,
        "meta_rev_at_epoch": 63146,
        "meta_bstar": 0.0014745207,
        "meta_mean_motion_dot": 0.00016237,
        "meta_mean_motion_ddot": 0,
        "tle_line1": "1 38062U 93036BRU 25354.52792047  .00016237  00000+0  14745-2 0  9996",
        "tle_line2": "2 38062  74.0088 274.7346 0012943  42.7602 131.9089 14.95206267631464"
      },
      "geometry": {
        "type": "Point",
        "coordinates": [
          -121.42532813753576,
          -52.30666272745622
        ]
      }
    },
    {
      "type": "Feature",
      "properties": {
        "norad_id": 38064,
        "name": "COSMOS 2251 DEB",
        "group": "cosmos-2251-debris",
        "lat": -53.81749753320242,
        "lon": 72.77824569539449,
        "alt_km": 711.2887659242106,
        "timestamp": "2025-12-27T15:27:11.592555+00:00",
        "meta_object_name": "COSMOS 2251 DEB",
        "meta_object_id": "1993-036BRW",
        "meta_epoch": "2025-12-27T05:49:29.069184",
        "meta_mean_motion": 14.56424107,
        "meta_eccentricity": 0.00469081,
        "meta_inclination": 74.0229,
        "meta_ra_of_asc_node": 96.6004,
        "meta_arg_of_pericenter": 213.725,
        "meta_mean_anomaly": 146.0928,
        "meta_ephemeris_type": 0,
        "meta_classification_type": "U",
        "meta_norad_cat_id": 38064,
        "meta_element_set_no": 999,
        "meta_rev_at_epoch": 72076,
        "meta_bstar": 0.00110744,
        "meta_mean_motion_dot": 4.965e-05,
        "meta_mean_motion_ddot": 0,
        "tle_line1": "1 38064U 93036BRW 25361.24269756  .00004965  00000+0  11074-2 0  9998",
        "tle_line2": "2 38064  74.0229  96.6004 0046908 213.7250 146.0928 14.56424107720765"
      },
      "geometry": {
        "type": "Point",
        "coordinates": [
          72.77824569539449,
          -53.81749753320242
        ]
      }
    },
    {
      "type": "Feature",
      "properties": {
        "norad_id": 38067,
        "name": "COSMOS 2251 DEB",
        "group": "cosmos-2251-debris",
        "lat": -0.06677620109711045,
        "lon": 65.9964590128176,
        "alt_km": 734.9439642082061,
        "timestamp": "2025-12-27T15:27:11.592566+00:00",
        "meta_object_name": "COSMOS 2251 DEB",
        "meta_object_id": "1993-036BRZ",
        "meta_epoch": "2025-12-26T11:29:24.952992",
        "meta_mean_motion": 14.61174653,
        "meta_eccentricity": 0.0070045,
        "meta_inclination": 74.0162,
        "meta_ra_of_asc_node": 248.2067,
        "meta_arg_of_pericenter": 32.1655,
        "meta_mean_anomaly": 141.0847,
        "meta_ephemeris_type": 0,
        "meta_classification_type": "U",
        "meta_norad_cat_id": 38067,
        "meta_element_set_no": 999,
        "meta_rev_at_epoch": 62756,
        "meta_bstar": 0.00033487,
        "meta_mean_motion_dot": 1.676e-05,
        "meta_mean_motion_ddot": 0,
        "tle_line1": "1 38067U 93036BRZ 25360.47876103  .00001676  00000+0  33487-3 0  9994",
        "tle_line2": "2 38067  74.0162 248.2067 0070045  32.1655 141.0847 14.61174653627562"
      },
      "geometry": {
        "type": "Point",
        "coordinates": [
          65.9964590128176,
          -0.06677620109711045
        ]
      }
    },
    {
      "type": "Feature",
      "properties": {
        "norad_id": 38068,
        "name": "COSMOS 2251 DEB",
        "group": "cosmos-2251-debris",
        "lat": 34.12098629899329,
        "lon": -67.96028485717821,
        "alt_km": 753.6914242874136,
        "timestamp": "2025-12-27T15:27:11.592576+00:00",
        "meta_object_name": "COSMOS 2251 DEB",
        "meta_object_id": "1993-036BSA",
        "meta_epoch": "2025-12-26T12:32:13.592256",
        "meta_mean_motion": 14.36020492,
        "meta_eccentricity": 0.0025088,
        "meta_inclination": 74.0217,
        "meta_ra_of_asc_node": 282.905,
        "meta_arg_of_pericenter": 7.3402,
        "meta_mean_anomaly": 352.8113,
        "meta_ephemeris_type": 0,
        "meta_classification_type": "U",
        "meta_norad_cat_id": 38068,
        "meta_element_set_no": 999,
        "meta_rev_at_epoch": 66844,
        "meta_bstar": 0.00030529,
        "meta_mean_motion_dot": 8.64e-06,
        "meta_mean_motion_ddot": 0,
        "tle_line1": "1 38068U 93036BSA 25360.52237954  .00000864  00000+0  30529-3 0  9998",
        "tle_line2": "2 38068  74.0217 282.9050 0025088   7.3402 352.8113 14.36020492668445"
      },
      "geometry": {
        "type": "Point",
        "coordinates": [
          -67.96028485717821,
          34.12098629899329
        ]
      }
    },
    {
      "type": "Feature",
      "properties": {
        "norad_id": 38197,
        "name": "COSMOS 2251 DEB",
        "group": "cosmos-2251-debris",
        "lat": -69.8133953932293,
        "lon": -83.8295408362537,
        "alt_km": 638.0420186433994,
        "timestamp": "2025-12-27T15:27:11.592586+00:00",
        "meta_object_name": "COSMOS 2251 DEB",
        "meta_object_id": "1993-036BSM",
        "meta_epoch": "2025-12-27T04:24:41.591808",
        "meta_mean_motion": 14.74672965,
        "meta_eccentricity": 0.01243,
        "meta_inclination": 73.938,
        "meta_ra_of_asc_node": 328.668,
        "meta_arg_of_pericenter": 202.6014,
        "meta_mean_anomaly": 156.9659,
        "meta_ephemeris_type": 0,
        "meta_classification_type": "U",
        "meta_norad_cat_id": 38197,
        "meta_element_set_no": 999,
        "meta_rev_at_epoch": 85968,
        "meta_bstar": 0.0033283185,
        "meta_mean_motion_dot": 0.00025235,
        "meta_mean_motion_ddot": 0,
        "tle_line1": "1 38197U 93036BSM 25361.18381472  .00025235  00000+0  33283-2 0  9997",
        "tle_line2": "2 38197  73.9380 328.6680 0124300 202.6014 156.9659 14.74672965859686"
      },
      "geometry": {
        "type": "Point",
        "coordinates": [
          -83.8295408362537,
          -69.8133953932293
        ]
      }
    },
    {
      "type": "Feature",
      "properties": {
        "norad_id": 38199,
        "name": "COSMOS 2251 DEB",
        "group": "cosmos-2251-debris",
        "lat": -41.087763607400696,
        "lon": 23.168745175100728,
        "alt_km": 751.1777512645567,
        "timestamp": "2025-12-27T15:27:11.592596+00:00",
        "meta_object_name": "COSMOS 2251 DEB",
        "meta_object_id": "1993-036BSP",
        "meta_epoch": "2025-12-26T11:30:15.579072",
        "meta_mean_motion": 13.64814422,
        "meta_eccentricity": 0.0370315,
        "meta_inclination": 73.9556,
        "meta_ra_of_asc_node": 39.6133,
        "meta_arg_of_pericenter": 323.3763,
        "meta_mean_anomaly": 34.254,
        "meta_ephemeris_type": 0,
        "meta_classification_type": "U",
        "meta_norad_cat_id": 38199,
        "meta_element_set_no": 999,
        "meta_rev_at_epoch": 61209,
        "meta_bstar": 0.00067322,
        "meta_mean_motion_dot": 8.42e-06,
        "meta_mean_motion_ddot": 0,
        "tle_line1": "1 38199U 93036BSP 25360.47934698  .00000842  00000+0  67322-3 0  9993",
        "tle_line2": "2 38199  73.9556  39.6133 0370315 323.3763  34.2540 13.64814422612099"
      },
      "geometry": {
        "type": "Point",
        "coordinates": [
          23.168745175100728,
          -41.087763607400696
        ]
      }
    },
    {
      "type": "Feature",
      "properties": {
        "norad_id": 38208,
        "name": "COSMOS 2251 DEB",
        "group": "cosmos-2251-debris",
        "lat": 33.139823358026,
        "lon": 60.10029387091537,
        "alt_km": 612.644793113509,
        "timestamp": "2025-12-27T15:27:11.592606+00:00",
        "meta_object_name": "COSMOS 2251 DEB",
        "meta_object_id": "1993-036BSY",
        "meta_epoch": "2025-12-26T10:15:20.422944",
        "meta_mean_motion": 14.8437794,
        "meta_eccentricity": 8.48e-05,
        "meta_inclination": 74.0044,
        "meta_ra_of_asc_node": 51.7225,
        "meta_arg_of_pericenter": 86.2803,
        "meta_mean_anomaly": 290.0795,
        "meta_ephemeris_type": 0,
        "meta_classification_type": "U",
        "meta_norad_cat_id": 38208,
        "meta_element_set_no": 999,
        "meta_rev_at_epoch": 71362,
        "meta_bstar": 0.0021793,
        "meta_mean_motion_dot": 0.00018329,
        "meta_mean_motion_ddot": 0,
        "tle_line1": "1 38208U 93036BSY 25360.42731971  .00018329  00000+0  21793-2 0  9998",
        "tle_line2": "2 38208  74.0044  51.7225 0000848  86.2803 290.0795 14.84377940713629"
      },
      "geometry": {
        "type": "Point",
        "coordinates": [
          60.10029387091537,
          33.139823358026
        ]
      }
    }
  ]
}